[{"OBJECT_NAME":"NUSAT-44 (MARIA MITCHELL)","OBJECT_ID":"2024-043AA","EPOCH":"2026-03-09T22:12:18.524160","MEAN_MOTION":15.29764305,"ECCENTRICITY":0.0007331,"INCLINATION":97.5299,"RA_OF_ASC_NODE":207.7691,"ARG_OF_PERICENTER":214.9017,"MEAN_ANOMALY":145.1743,"EPHEMERIS_TYPE":0,"CLASSIFICATION_TYPE":"U","NORAD_CAT_ID":59122,"ELEMENT_SET_NO":999,"REV_AT_EPOCH":11209,"BSTAR":0.00061063193,"MEAN_MOTION_DOT":0.00017562,"MEAN_MOTION_DDOT":0},{"OBJECT_NAME":"STARLINK-36099","OBJECT_ID":"2025-278G","EPOCH":"2026-03-09T10:59:45.290976","MEAN_MOTION":15.27600863,"ECCENTRICITY":0.00018976,"INCLINATION":43.0055,"RA_OF_ASC_NODE":115.6815,"ARG_OF_PERICENTER":280.8029,"MEAN_ANOMALY":79.2609,"EPHEMERIS_TYPE":0,"CLASSIFICATION_TYPE":"U","NORAD_CAT_ID":66797,"ELEMENT_SET_NO":999,"REV_AT_EPOCH":1517,"BSTAR":0.0014044329,"MEAN_MOTION_DOT":0.00038612,"MEAN_MOTION_DDOT":0}]
